NORAD_CAT_ID,OBJECT_NAME,OBJECT_TYPE,EPOCH,MEAN_MOTION,ECCENTRICITY,INCLINATION,RA_OF_ASC_NODE,ARG_OF_PERICENTER,MEAN_ANOMALY,BSTAR,MEAN_MOTION_DOT,MEAN_MOTION_DDOT,TLE_LINE0,TLE_LINE1,TLE_LINE2,SEMIMAJOR_AXIS,PERIOD,APOGEE,PERIGEE,DECAYED
55403.0,STARLINK-5597,PAYLOAD,2023-12-31 03:48:08,14.98325535,0.0002198,70.0001,280.3471,245.2716,114.8214,-8.2108e-05,-1.072e-05,0.0,0 STARLINK-5597,1 55403U 23014N   23365.15843368 -.00001072  00000-0 -82108-4 0  9999,2 55403  70.0001 280.3471 0002198 245.2716 114.8214 14.98325535 51359,6950.207,96.107,573.599,570.544,0.0
55403.0,STARLINK-5597,PAYLOAD,2023-12-31 21:25:36,14.98329595,0.0002457,69.9998,278.4938,264.7525,95.3354,2.0251e-05,1.49e-06,0.0,0 STARLINK-5597,1 55403U 23014N   23365.89278794  .00000149  00000-0  20251-4 0  9998,2 55403  69.9998 278.4938 0002457 264.7525  95.3354 14.98329595 52404,6950.194,96.107,573.767,570.351,0.0
55403.0,STARLINK-5597,PAYLOAD,2024-01-01 03:50:09,14.98332742,0.0001998,70.0,277.8213,281.2675,78.826,3.4048e-05,3.13e-06,0.0,0 STARLINK-5597,1 55403U 23014N   24001.15982794  .00000313  00000-0  34048-4 0  9999,2 55403  70.0000 277.8213 0001998 281.2675  78.8260 14.98332742 51509,6950.184,96.107,573.438,570.661,0.0
55403.0,STARLINK-5597,PAYLOAD,2024-01-01 21:27:37,14.98327363,0.0002551,69.9989,275.968,267.2836,92.8031,0.00010789,1.194e-05,0.0,0 STARLINK-5597,1 55403U 23014N   24001.89418569  .00001194  00000-0  10789-3 0  9997,2 55403  69.9989 275.9680 0002551 267.2836  92.8031 14.98327363 52559,6950.201,96.107,573.839,570.293,0.0
55403.0,STARLINK-5597,PAYLOAD,2024-01-02 03:52:09,14.98332046,0.0002637,69.9991,275.2951,272.2505,87.8352,0.00014632,1.653e-05,0.0,0 STARLINK-5597,1 55403U 23014N   24002.16122175  .00001653  00000-0  14632-3 0  9994,2 55403  69.9991 275.2951 0002637 272.2505  87.8352 14.98332046 51654,6950.187,96.107,573.884,570.219,0.0
55403.0,STARLINK-5597,PAYLOAD,2024-01-02 21:29:38,14.98335005,0.0002311,69.999,273.4437,256.6362,103.4539,-4.4562e-05,-6.25e-06,0.0,0 STARLINK-5597,1 55403U 23014N   24002.89558320 -.00000625  00000-0 -44562-4 0  9995,2 55403  69.9990 273.4437 0002311 256.6362 103.4539 14.98335005 52705,6950.177,96.107,573.649,570.436,0.0
55403.0,STARLINK-5597,PAYLOAD,2024-01-03 03:54:10,14.98336562,0.0002352,69.999,272.7704,260.676,99.4133,-2.1647e-05,-3.51e-06,0.0,0 STARLINK-5597,1 55403U 23014N   24003.16262072 -.00000351  00000-0 -21647-4 0  9997,2 55403  69.9990 272.7704 0002352 260.6760  99.4133 14.98336562 51809,6950.173,96.107,573.672,570.403,0.0
55403.0,STARLINK-5597,PAYLOAD,2024-01-03 19:55:31,14.9832898,0.0002311,69.999,271.0868,262.4692,97.6205,-5.4713e-05,-7.46e-06,0.0,0 STARLINK-5597,1 55403U 23014N   24003.83022512 -.00000746  00000-0 -54713-4 0  9992,2 55403  69.9990 271.0868 0002311 262.4692  97.6205 14.98328980 51907,6950.196,96.107,573.667,570.455,0.0
55403.0,STARLINK-5597,PAYLOAD,2024-01-03 21:31:39,14.98327859,0.0002501,69.9993,270.9185,270.7336,89.3536,-2.4627e-05,-3.87e-06,0.0,0 STARLINK-5597,1 55403U 23014N   24003.89698508 -.00000387  00000-0 -24627-4 0  9994,2 55403  69.9993 270.9185 0002501 270.7336  89.3536 14.98327859 52852,6950.2,96.107,573.803,570.326,0.0
55403.0,STARLINK-5597,PAYLOAD,2024-01-04 03:56:11,14.98331221,0.0002449,69.9992,270.2455,268.7795,91.3083,-9.7334e-06,-2.09e-06,0.0,0 STARLINK-5597,1 55403U 23014N   24004.16402244 -.00000209  00000-0 -97334-5 0  9994,2 55403  69.9992 270.2455 0002449 268.7795  91.3083 14.98331221 52893,6950.189,96.107,573.756,570.352,0.0
55403.0,STARLINK-5597,PAYLOAD,2024-01-04 19:57:32,14.98329705,0.0002458,69.9992,268.5622,270.3336,89.7541,2.876e-06,-5.9e-07,0.0,0 STARLINK-5597,1 55403U 23014N   24004.83162174 -.00000059  00000-0  28760-5 0  9992,2 55403  69.9992 268.5622 0002458 270.3336  89.7541 14.98329705 52051,6950.194,96.107,573.767,570.35,0.0
55403.0,STARLINK-5597,PAYLOAD,2024-01-04 21:33:40,14.98329354,0.0002472,69.9991,268.394,270.076,90.0116,-6.0792e-06,-1.65e-06,0.0,0 STARLINK-5597,1 55403U 23014N   24004.89838219 -.00000165  00000-0 -60792-5 0  9998,2 55403  69.9991 268.3940 0002472 270.0760  90.0116 14.98329354 53004,6950.195,96.107,573.778,570.342,0.0
55403.0,STARLINK-5597,PAYLOAD,2024-01-05 03:58:12,14.9833388,0.0002483,69.9987,267.7206,268.74,91.3475,3.5289e-05,3.28e-06,0.0,0 STARLINK-5597,1 55403U 23014N   24005.16541768  .00000328  00000-0  35289-4 0  9990,2 55403  69.9987 267.7206 0002483 268.7400  91.3475 14.98333880 53049,6950.181,96.107,573.772,570.32,0.0
55403.0,STARLINK-5597,PAYLOAD,2024-01-05 21:35:41,14.98324483,0.0002327,69.9991,265.8702,255.9484,104.1417,-2.682e-05,-4.13e-06,0.0,0 STARLINK-5597,1 55403U 23014N   24005.89978550 -.00000413  00000-0 -26820-4 0  9991,2 55403  69.9991 265.8702 0002327 255.9484 104.1417 14.98324483 53151,6950.21,96.107,573.692,570.458,0.0
55403.0,STARLINK-5597,PAYLOAD,2024-01-06 04:00:13,14.98323673,0.0002318,69.9991,265.1971,257.4439,102.6461,-3.5208e-05,-5.13e-06,0.0,0 STARLINK-5597,1 55403U 23014N   24006.16682714 -.00000513  00000-0 -35208-4 0  9997,2 55403  69.9991 265.1971 0002318 257.4439 102.6461 14.98323673 52251,6950.212,96.107,573.689,570.466,0.0
55403.0,STARLINK-5597,PAYLOAD,2024-01-06 20:01:34,14.98331977,0.0002391,69.9988,263.5137,263.7896,96.2991,-1.0667e-06,-1.06e-06,0.0,0 STARLINK-5597,1 55403U 23014N   24006.83442144 -.00000106  00000-0 -10667-5 0  9993,2 55403  69.9988 263.5137 0002391 263.7896  96.2991 14.98331977 52354,6950.187,96.107,573.714,570.39,0.0
55403.0,STARLINK-5597,PAYLOAD,2024-01-06 21:37:42,14.98331566,0.0002405,69.9988,263.3454,263.9534,96.1351,-5.9634e-06,-1.64e-06,0.0,0 STARLINK-5597,1 55403U 23014N   24006.90118174 -.00000164  00000-0 -59634-5 0  9995,2 55403  69.9988 263.3454 0002405 263.9534  96.1351 14.98331566 53300,6950.188,96.107,573.725,570.382,0.0
55403.0,STARLINK-5597,PAYLOAD,2024-01-07 02:26:06,14.98328656,0.0002671,69.9986,262.8401,269.5314,90.5539,4.5308e-05,4.48e-06,0.0,0 STARLINK-5597,1 55403U 23014N   24007.10146217  .00000448  00000-0  45308-4 0  9992,2 55403  69.9986 262.8401 0002671 269.5314  90.5539 14.98328656 53332,6950.197,96.107,573.918,570.206,0.0
55403.0,STARLINK-5597,PAYLOAD,2024-01-07 20:03:35,14.98325715,0.0002618,69.9981,260.9874,268.3622,91.7237,1.0328e-05,3e-07,0.0,0 STARLINK-5597,1 55403U 23014N   24007.83582526  .00000030  00000-0  10328-4 0  9990,2 55403  69.9981 260.9874 0002618 268.3622  91.7237 14.98325715 52509,6950.206,96.107,573.891,570.252,0.0
55403.0,STARLINK-5597,PAYLOAD,2024-01-07 21:39:43,14.98325354,0.0002625,69.9981,260.8191,268.3752,91.7107,5.5769e-06,-2.6e-07,0.0,0 STARLINK-5597,1 55403U 23014N   24007.90258575 -.00000026  00000-0  55769-5 0  9997,2 55403  69.9981 260.8191 0002625 268.3752  91.7107 14.98325354 53452,6950.207,96.107,573.897,570.248,0.0
55403.0,STARLINK-5597,PAYLOAD,2024-01-08 02:28:07,14.98328892,0.0002576,69.9982,260.3143,267.7852,92.3012,4.5901e-05,4.55e-06,0.0,0 STARLINK-5597,1 55403U 23014N   24008.10286263  .00000455  00000-0  45901-4 0  9996,2 55403  69.9982 260.3143 0002576 267.7852  92.3012 14.98328892 53489,6950.196,96.107,573.852,570.271,0.0
55403.0,STARLINK-5597,PAYLOAD,2024-01-08 20:05:33,14.98353936,0.0002934,69.9979,258.462,270.1797,89.9026,0.00020179,2.317e-05,0.0,0 STARLINK-5597,1 55403U 23014N   24008.83719348  .00002317  00000-0  20179-3 0  9999,2 55403  69.9979 258.4620 0002934 270.1797  89.9026 14.98353936 52659,6950.119,96.105,574.023,569.945,0.0
55403.0,STARLINK-5597,PAYLOAD,2024-01-08 21:41:41,14.98345616,0.0003202,69.9981,258.2936,217.066,143.0278,0.00010015,1.103e-05,0.0,0 STARLINK-5597,1 55403U 23014N   24008.90395699  .00001103  00000-0  10015-3 0  9996,2 55403  69.9981 258.2936 0003202 217.0660 143.0278 14.98345616 53601,6950.145,96.106,574.235,569.784,0.0
55403.0,STARLINK-5597,PAYLOAD,2024-01-09 02:30:08,14.98325624,0.0002626,69.9981,257.7886,261.8623,98.2238,-9.9713e-05,-1.282e-05,0.0,0 STARLINK-5597,1 55403U 23014N   24009.10425954 -.00001282  00000-0 -99713-4 0  9990,2 55403  69.9981 257.7886 0002626 261.8623  98.2238 14.98325624 52696,6950.206,96.107,573.897,570.246,0.0
55403.0,STARLINK-5597,PAYLOAD,2024-01-09 21:43:45,14.98323651,0.0002676,69.9979,255.7685,262.4161,97.6694,-0.00011851,-1.506e-05,0.0,0 STARLINK-5597,1 55403U 23014N   24009.90538298 -.00001506  00000-0 -11851-3 0  9999,2 55403  69.9979 255.7685 0002676 262.4161  97.6694 14.98323651 53752,6950.213,96.107,573.937,570.218,0.0
55403.0,STARLINK-5597,PAYLOAD,2024-01-10 02:32:09,14.98324266,0.0002563,69.9982,255.2637,260.9002,99.1867,-8.716e-05,-1.133e-05,0.0,0 STARLINK-5597,1 55403U 23014N   24010.10566230 -.00001133  00000-0 -87160-4 0  9993,2 55403  69.9982 255.2637 0002563 260.9002  99.1867 14.98324266 52841,6950.211,96.107,573.857,570.294,0.0
55403.0,STARLINK-5597,PAYLOAD,2024-01-10 18:33:29,14.98334252,0.0002707,69.9981,253.5802,262.0245,98.0606,-0.00017369,-2.165e-05,0.0,0 STARLINK-5597,1 55403U 23014N   24010.77325578 -.00002165  00000-0 -17369-3 0  9993,2 55403  69.9981 253.5802 0002707 262.0245  98.0606 14.98334252 52943,6950.18,96.107,573.926,570.163,0.0
55403.0,STARLINK-5597,PAYLOAD,2024-01-11 02:34:09,14.98341952,0.0002534,69.9982,252.7384,261.7812,98.306,-0.00020707,-2.563e-05,0.0,0 STARLINK-5597,1 55403U 23014N   24011.10705101 -.00002563  00000-0 -20707-3 0  9997,2 55403  69.9982 252.7384 0002534 261.7812  98.3060 14.98341952 52991,6950.156,96.106,573.782,570.26,0.0
55403.0,STARLINK-5597,PAYLOAD,2024-01-11 15:23:14,14.98319203,0.0002397,69.9985,251.3922,260.3807,99.7082,5.929e-05,6.14e-06,0.0,0 STARLINK-5597,1 55403U 23014N   24011.64114225  .00000614  00000-0  59290-4 0  9990,2 55403  69.9985 251.3922 0002397 260.3807  99.7082 14.98319203 54011,6950.226,96.108,573.757,570.425,0.0
55403.0,STARLINK-5597,PAYLOAD,2024-01-11 20:11:38,14.98320065,0.0002405,69.9985,250.8872,258.2012,101.8877,6.3213e-05,6.61e-06,0.0,0 STARLINK-5597,1 55403U 23014N   24011.84142266  .00000661  00000-0  63213-4 0  9990,2 55403  69.9985 250.8872 0002405 258.2012 101.8877 14.98320065 53107,6950.224,96.108,573.76,570.417,0.0
